satname,norad_id,inclination_deg,eccentricity,mean_motion_rev_per_day,perigee_km,apogee_km,l1,l2
STARLINK-1143,45179,53.0483,0.0007049,15.61103443,379.7015431031223,389.23546434226955,1 45179U 20012B   26061.91668981  .00111490  00000+0  12852-2 0  9999,2 45179  53.0483   2.9975 0007049  74.2789 314.9579 15.61103443  5988
STARLINK-1202,45183,53.1611,0.0001082,15.30191569,474.4987075635181,475.9817783988992,1 45183U 20012F   26061.30793865  .00001906  00000+0  76470-4 0  9995,2 45183  53.1611  73.5386 0001082  96.6526 263.4598 15.30191569333823
STARLINK-1216,45185,53.1609,0.0001499,15.30193785,474.2063060949813,476.2609466087624,1 45185U 20012H   26061.29845459  .00001582  00000+0  65528-4 0  9994,2 45185  53.1609  73.5617 0001499  87.0860 273.0313 15.30193785333763
STARLINK-1225,45187,53.1596,0.00016,15.30186977,474.1574114730465,476.35049657833497,1 45187U 20012K   26061.29537056  .00001532  00000+0  63871-4 0  9991,2 45187  53.1596  74.0136 0001600 106.3957 253.7220 15.30186977333800
STARLINK-1230,45189,53.161,0.0001461,15.30215723,474.1668558988058,476.1693916559743,1 45189U 20012M   26061.30483343  .00001675  00000+0  68652-4 0  9994,2 45189  53.1610  74.0324 0001461  74.7047 285.4115 15.30215723331031
STARLINK-1234,45190,53.0452,0.0003521,15.60503633,383.8195620801853,388.58300910089747,1 45190U 20012N   26061.91668981  .00109140  00000+0  12889-2 0  9991,2 45190  53.0452 358.3672 0003521 303.0964 336.7400 15.60503633  5976
STARLINK-1269,45197,53.1597,0.0001576,15.30208729,474.108922144037,476.2690905012305,1 45197U 20012V   26061.30168959  .00015289  00000+0  52712-3 0  9991,2 45197  53.1597  73.9048 0001576  79.6746 280.4433 15.30208729333782
STARLINK-1154,45198,53.0488,0.0007174,15.44581643,427.72158065425447,437.4936370190135,1 45198U 20012W   26061.18375382  .00085258  00000+0  17930-2 0  9993,2 45198  53.0488  45.7718 0007174  56.2025 303.9662 15.44581643334132
STARLINK-1199,45201,53.1566,0.0001535,15.2935296,476.69296746741475,478.79772334745394,1 45201U 20012Z   26061.26681703  .00004566  00000+0  17048-3 0  9998,2 45201  53.1566  58.2751 0001535  94.0373 266.0803 15.29352960334027
STARLINK-1209,45206,53.0484,0.000594,15.49483112,414.20005934059736,422.2741517780014,1 45206U 20012AE  26061.26118736  .00093836  00000+0  16638-2 0  9995,2 45206  53.0484   9.1058 0005940 260.8121  99.2215 15.49483112333762
STARLINK-1210,45207,53.0007,0.0006635,16.27375304,195.2385314910498,203.96719228777692,1 45207U 20012AF  26061.92582021  .03202188  12006-4  86752-3 0  9995,2 45207  53.0007 293.3318 0006635 252.6321 107.3994 16.27375304335838
STARLINK-1231,45212,53.0513,0.0004382,15.20316712,501.86839483686254,507.9006749100272,1 45212U 20012AL  26061.64781484  .00043430  00000+0  19756-2 0  9999,2 45212  53.0513  48.1123 0004382  52.0710 308.0681 15.20316712334154
STARLINK-1271,45217,53.1565,0.000117,15.29377794,476.86899855334104,478.47325765531787,1 45217U 20012AR  26061.39909005  .00007810  00000+0  28252-3 0  9991,2 45217  53.1565  57.8222 0001170  87.6170 272.4965 15.29377794334043
STARLINK-1191,45222,53.1587,0.0001529,15.30200973,474.1642871310396,476.260041305457,1 45222U 20012AW  26061.61548409  .00006835  00000+0  24267-3 0  9997,2 45222  53.1587  31.6825 0001529  87.4938 272.6238 15.30200973334434
STARLINK-1212,45223,53.0507,0.000587,15.50467298,411.3729405018639,419.3485068294467,1 45223U 20012AX  26061.82882514  .00110268  00000+0  18831-2 0  9994,2 45223  53.0507  23.0753 0005870  80.3040 279.8631 15.50467298334578
STARLINK-1215,45225,53.1597,0.00011,15.30192503,474.4835830114116,475.99132539133643,1 45225U 20012AZ  26061.20982293  .00002979  00000+0  11270-3 0  9993,2 45225  53.1597  33.0471 0001100  89.9340 270.1786 15.30192503334339
STARLINK-1221,45227,53.0667,0.0002942,15.41621063,439.3182539352965,443.3308251051503,1 45227U 20012BB  26061.65135097  .00017757  00000+0  42402-3 0  9997,2 45227  53.0667 302.9602 0002942  37.8561 322.2650 15.41621063335626
STARLINK-1222,45228,53.0577,0.0003969,15.49023477,416.88346363754863,422.27949256546526,1 45228U 20012BC  26061.58924821  .00029937  00000+0  54959-3 0  9994,2 45228  53.0577  16.8401 0003969  64.2357 295.9060 15.49023477334524
STARLINK-1226,45229,53.1595,0.000155,15.30176946,474.2216251317159,476.3461856123813,1 45229U 20012BD  26061.91668981  .00044635  00000+0  15112-2 0  9993,2 45229  53.1595  30.0764 0001550  98.5685  34.8239 15.30176946  5909
STARLINK-1227,45230,53.1599,0.0001269,15.31035798,471.8512887476845,473.59003642244807,1 45230U 20012BE  26061.33024825  .00003542  00000+0  12838-3 0  9999,2 45230  53.1599  33.0933 0001269  84.5506 275.5640 15.31035798334400
STARLINK-1246,45235,53.1596,0.0001484,15.30202419,474.1908103556116,476.2248831061215,1 45235U 20012BK  26061.44173125  .00000717  00000+0  36332-4 0  9991,2 45235  53.1596  72.9146 0001484 106.0095 254.1070 15.30202419333866
STARLINK-1270,45237,53.0506,0.0004077,15.45589591,426.8706931921615,432.42175963497994,1 45237U 20012BM  26061.60208951  .00086653  00000+0  17614-2 0  9990,2 45237  53.0506  21.3789 0004077  57.8459 302.2942 15.45589591334574
STARLINK-1279,45360,53.0429,0.0001171,15.56082662,398.21368582939704,399.8008930219794,1 45360U 20019A   26061.91668981  .00093363  00000+0  13058-2 0  9995,2 45360  53.0429 131.5190 0001171 151.4792 349.4589 15.56082662  5965
STARLINK-1301,45361,53.0428,0.0002248,15.63510725,376.00661917377784,379.0439649402879,1 45361U 20019B   26061.91668981  .00111315  00000+0  11697-2 0  9991,2 45361  53.0428 137.2838 0002248 184.1107 337.3395 15.63510725  5983
STARLINK-1262,45366,53.1199,9e-05,15.2142068,500.93533701815613,502.17368148982223,1 45366U 20019G   26061.91668981  .00858936  00000+0  35146-1 0  9997,2 45366  53.1199 196.3470 0000900  94.7504 236.1395 15.21420680  5476
STARLINK-1273,45367,53.0525,7.66e-05,15.43379298,435.6223770073375,436.66632491030487,1 45367U 20019H   26061.60730904  .00024555  00000+0  54903-3 0  9995,2 45367  53.0525 188.4784 0000766 323.9646  36.1308 15.43379298328802
STARLINK-1276,45368,53.0558,0.0001258,15.06420213,546.2784076418093,548.0208097525565,1 45368U 20019J   26061.65190568 -.00003161  00000+0 -19329-3 0  9992,2 45368  53.0558 198.2098 0001258 109.0705 251.0420 15.06420213328673
STARLINK-1277,45369,53.0515,0.0002287,15.47524725,422.4141131296128,425.5253967593244,1 45369U 20019K   26061.91668981  .00080304  00000+0  15292-2 0  9997,2 45369  53.0515 185.0246 0002287 354.2907   9.3534 15.47524725  5947
STARLINK-1281,45370,53.1179,0.0001059,15.21008769,502.06784179027727,503.52522351249354,1 45370U 20019L   26061.91668981  .01155352  00000+0  47340-1 0  9994,2 45370  53.1179 196.5455 0001059  85.7618 235.8322 15.21008769  5832
STARLINK-1300,45374,53.1229,0.0001118,15.22086842,498.77811071318956,500.3159608635915,1 45374U 20019Q   26061.91668981  .01766692  00000+0  69529-1 0  9996,2 45374  53.1229 196.5702 0001118 101.3331  86.5113 15.22086842  5827
STARLINK-1302,45375,53.0525,0.0002212,15.48181158,420.5426772578394,423.5510786054356,1 45375U 20019R   26061.74846857  .00099742  00000+0  18499-2 0  9993,2 45375  53.0525 185.1377 0002212 275.2135  84.8620 15.48181158328867
STARLINK-1304,45376,53.052,0.0001609,15.46848638,424.85684779388976,427.0464035136247,1 45376U 20019S   26061.60611963  .00090450  00000+0  17598-2 0  9993,2 45376  53.0520 183.3648 0001609 253.9251 106.1578 15.46848638328877
STARLINK-1305,45377,53.0465,0.000304,15.51430363,410.48464573274305,414.613382829426,1 45377U 20019T   26061.56328778  .00093980  00000+0  15559-2 0  9994,2 45377  53.0465 166.5740 0003040 111.0557 249.0777 15.51430363329110
STARLINK-1319,45379,53.0453,0.0001431,15.62603959,379.17143298650444,381.10565144668635,1 45379U 20019V   26061.91668981  .01163048  00000+0  11511-1 0  9995,2 45379  53.0453 162.9387 0001431  83.0634  10.2177 15.62603959  5817
STARLINK-1266,45383,53.0516,0.0002833,15.44175066,431.87323383780495,435.732879073792,1 45383U 20019Z   26061.60702744  .00077810  00000+0  16626-2 0  9995,2 45383  53.0516 166.6844 0002833 345.5430  14.5493 15.44175066329100
STARLINK-1267,45384,53.0524,0.0003453,15.48364705,419.16154226001436,423.8573781054156,1 45384U 20019AA  26061.65165875  .00073012  00000+0  13522-2 0  9991,2 45384  53.0524 160.7270 0003453 233.6398 126.4290 15.48364705329198
STARLINK-1272,45386,53.0452,0.0001888,15.54878027,401.2270273779077,403.7873986327395,1 45386U 20019AC  26061.60111142  .00102441  00000+0  14952-2 0  9993,2 45386  53.0452 144.0894 0001888 114.1911 245.9297 15.54878027329425
STARLINK-1274,45387,53.0281,0.0004803,15.45828942,425.6740378840768,432.2129193918572,1 45387U 20019AD  26061.61295679  .00044606  00000+0  90829-3 0  9999,2 45387  53.0281 136.7248 0004803 212.6951 147.3758 15.45828942329524
STARLINK-1280,45388,53.0433,0.0001278,15.64640629,373.4095450691948,375.1354609381633,1 45388U 20019AE  26061.91668981 -.00058921  00000+0 -59612-3 0  9995,2 45388  53.0433 155.7338 0001278 117.0320  80.0507 15.64640629  5987
STARLINK-1283,45389,53.0444,0.0004729,15.547817,399.5805756851587,405.9939738642415,1 45389U 20019AF  26061.91668981  .00084638  00000+0  12434-2 0  9998,2 45389  53.0444 142.7712 0004729 213.2449 183.8885 15.54781700  5950
STARLINK-1284,45390,53.0501,0.0002168,15.50363208,414.1918969443541,417.137689401874,1 45390U 20019AG  26061.65500788  .00087321  00000+0  15035-2 0  9993,2 45390  53.0501 164.8005 0002168 349.7384  10.3580 15.50363208329134
STARLINK-1297,45395,53.0493,0.0003151,15.5259458,407.01523905315935,411.29258978742655,1 45395U 20019AM  26061.74070034  .00097160  00000+0  15420-2 0  9994,2 45395  53.0493 164.2152 0003151 353.2304   6.8662 15.52594580328334
STARLINK-1307,45397,53.0558,0.0001371,15.49578173,417.0274026699326,418.89089223356314,1 45397U 20019AP  26061.52470507  .00029181  00000+0  52575-3 0  9992,2 45397  53.0558 165.1119 0001371  37.9639 322.1465 15.49578173328948
